[{"OBJECT_NAME":"STARLINK-6190","OBJECT_ID":"2023-078H","EPOCH":"2026-03-09T22:48:45.792000","MEAN_MOTION":14.98324844,"ECCENTRICITY":0.0002323,"INCLINATION":70.0012,"RA_OF_ASC_NODE":3.8987,"ARG_OF_PERICENTER":268.2957,"MEAN_ANOMALY":91.7936,"EPHEMERIS_TYPE":0,"CLASSIFICATION_TYPE":"U","NORAD_CAT_ID":56774,"ELEMENT_SET_NO":999,"REV_AT_EPOCH":15222,"BSTAR":-3.4467296e-5,"MEAN_MOTION_DOT":-5.04e-6,"MEAN_MOTION_DDOT":0},{"OBJECT_NAME":"GEESAT-2 04","OBJECT_ID":"2024-023D","EPOCH":"2026-03-09T22:58:49.443744","MEAN_MOTION":14.96681304,"ECCENTRICITY":0.00064656,"INCLINATION":49.992,"RA_OF_ASC_NODE":72.838,"ARG_OF_PERICENTER":6.7244,"MEAN_ANOMALY":353.3785,"EPHEMERIS_TYPE":0,"CLASSIFICATION_TYPE":"U","NORAD_CAT_ID":58908,"ELEMENT_SET_NO":999,"REV_AT_EPOCH":11446,"BSTAR":0.0002767609,"MEAN_MOTION_DOT":2.943e-5,"MEAN_MOTION_DDOT":0}]
